STARLINK-31852          
1 59841U 24097G   26177.86902971 -.00000144  00000+0  42888-5 0  9998
2 59841  43.0030  10.0464 0001471 273.8315  86.2368 15.27568663118705
STARLINK-31906          
1 59842U 24097H   26177.93873826 -.00003166  00000+0 -10562-3 0  9993
2 59842  43.0038  17.5003 0000691 277.5186  82.5587 15.27569242118622
STARLINK-31857          
1 59843U 24097J   26177.90275540 -.00002227  00000+0 -71454-4 0  9995
2 59843  43.0009  17.2206 0001234 259.5632 100.5081 15.27571093118620
STARLINK-31851          
1 59844U 24097K   26177.91690229 -.00004014  00000+0 -13649-3 0  9999
2 59844  43.0018  17.3402 0000768 254.3974 105.6793 15.27562536118621
STARLINK-31903          
1 59845U 24097L   26177.92429015 -.00000796  00000+0 -19432-4 0  9994
2 59845  43.0053  10.4667 0001434 282.6104  77.4587 15.27553333118709
STARLINK-31922          
1 59846U 24097M   26177.90659649  .00000466  00000+0  26463-4 0  9995
2 59846  43.0005  17.2520 0001079 265.3784  94.6945 15.27579331118623
STARLINK-31889          
1 59847U 24097N   26176.98105557  .00001073  00000+0  48517-4 0  9996
2 59847  43.0019  23.2102 0001292 267.1405  92.9299 15.27583538118479
STARLINK-31859          
1 59848U 24097P   26177.93071877 -.00002362  00000+0 -76393-4 0  9997
2 59848  43.0025  10.5143 0001049 287.1066  72.9671 15.27560081118702
STARLINK-31895          
1 59849U 24097Q   26177.26686922  .00008145  00000+0  30512-3 0  9992
2 59849  43.0010  21.0576 0001545 279.0754  80.9923 15.27586600118523
STARLINK-31899          
1 59850U 24097R   26177.92460147 -.00001486  00000+0 -44523-4 0  9997
2 59850  43.0053  17.3927 0000935 262.4986  97.5760 15.27566279118629
STARLINK-31896          
1 59851U 24097S   26177.92846731 -.00003406  00000+0 -11433-3 0  9992
2 59851  43.0023  17.4202 0000854 252.5131 107.5628 15.27576313118621
STARLINK-31892          
1 59853U 24097U   26177.94644859 -.00000362  00000+0 -36211-5 0  9994
2 59853  43.0038  17.5554 0001431 254.1181 105.9513 15.27558699118627
STARLINK-31891          
1 59854U 24097V   26177.95029871  .00000835  00000+0  39854-4 0  9995
2 59854  43.0035  17.5832 0000991 263.3780  96.6958 15.27570360118629
STARLINK-31882          
1 59855U 24097W   26177.92684545  .00003617  00000+0  14099-3 0  9992
2 59855  43.0034  10.4728 0001014 247.3543 112.7201 15.27557581118701
STARLINK-31691          
1 59856U 24097X   26177.83351340 -.00000678  00000+0 -15112-4 0  9991
2 59856  43.0006  17.5589 0001335 276.5512  83.5188 15.27569478118617
STARLINK-31569          
1 59857U 24097Y   26177.93488531 -.00001991  00000+0 -62883-4 0  9992
2 59857  43.0020  17.4667 0000954 260.8151  99.2593 15.27560166118621
STARLINK-31654          
1 59858U 24098A   26177.89555840 -.00002040  00000+0 -64668-4 0  9996
2 59858  42.9998  13.8366 0000800 275.5239  84.5522 15.27569019118625
STARLINK-31442          
1 59859U 24098B   26177.31475567 -.00001049  00000+0 -28618-4 0  9994
2 59859  43.0019  28.4387 0001081 270.8863  89.1865 15.27572699118416
STARLINK-31651          
1 59860U 24098C   26177.93311968 -.00026125  00000+0 -94019-3 0  9997
2 59860  43.0008  21.0394 0001478 227.5545 132.5181 15.27682791118553
STARLINK-31584          
1 59862U 24098E   26177.92285154 -.00001198  00000+0 -34032-4 0  9998
2 59862  42.9993  20.9633 0001138 276.3961  83.6761 15.27565684118558
STARLINK-31950          
1 59863U 24098F   26177.94083491  .00000144  00000+0  14755-4 0  9999
2 59863  43.0040  21.0951 0001214 271.3431  88.7281 15.27572660118556
STARLINK-31931          
1 59864U 24098G   26177.95883146  .00003109  00000+0  12257-3 0  9994
2 59864  43.0042  21.2297 0001044 247.7931 112.2810 15.27548569118559
STARLINK-31938          
1 59865U 24098H   26177.84718167 -.00000251  00000+0  40854-6 0  9996
2 59865  43.0011  21.2456 0000955 274.4366  85.6377 15.27571482118542
STARLINK-31941          
1 59866U 24098J   26177.92778289 -.00000669  00000+0 -14776-4 0  9993
2 59866  43.0013   3.3311 0001501 279.6691  80.3991 15.27568769118753
STARLINK-31952          
1 59867U 24098K   26177.61776691 -.00002687  00000+0 -88198-4 0  9996
2 59867  43.0049  22.9675 0001168 262.4993  97.5726 15.27563888118503
STARLINK-31921          
1 59868U 24098L   26177.83421534 -.00003774  00000+0 -12775-3 0  9999
2 59868  43.0003 341.2565 0000579 328.4112  31.6705 15.27569260118999
STARLINK-31760          
1 59869U 24098M   26177.95498851  .00012707  00000+0  47123-3 0  9998
2 59869  43.0025  21.1999 0001163 241.5474 118.5260 15.27527990118552
STARLINK-31945          
1 59870U 24098N   26177.95401809  .00000009  00000+0  98675-5 0  9999
2 59870  43.0038  16.8652 0001443 265.3966  94.6721 15.27587295118602
STARLINK-31937          
1 59871U 24098P   26177.93153039  .00000221  00000+0  17575-4 0  9992
2 59871  43.0043  14.1031 0001140 265.0058  95.0664 15.27565100118639
STARLINK-31940          
1 59873U 24098R   26177.94680424 -.00001289  00000+0 -37341-4 0  9998
2 59873  43.0028  13.3520 0001157 275.8424  84.2296 15.27567799118640
