OBJECT_NAME,OBJECT_ID,EPOCH,MEAN_MOTION,ECCENTRICITY,INCLINATION,RA_OF_ASC_NODE,ARG_OF_PERICENTER,MEAN_ANOMALY,EPHEMERIS_TYPE,CLASSIFICATION_TYPE,NORAD_CAT_ID,ELEMENT_SET_NO,REV_AT_EPOCH,BSTAR,MEAN_MOTION_DOT,MEAN_MOTION_DDOT
STARLINK-31852,2024-097G,2026-06-26T20:51:24.166944,15.27568663,.00014718,43.0030,10.0464,273.8315,86.2368,0,U,59841,999,11870,.4288838E-5,-.144E-5,0
STARLINK-31906,2024-097H,2026-06-26T22:31:46.985664,15.27569242,.00006915,43.0038,17.5003,277.5186,82.5587,0,U,59842,999,11862,-.10562011E-3,-.3166E-4,0
STARLINK-31857,2024-097J,2026-06-26T21:39:58.066560,15.27571093,.00012343,43.0009,17.2206,259.5632,100.5081,0,U,59843,999,11862,-.71454E-4,-.2227E-4,0
STARLINK-31851,2024-097K,2026-06-26T22:00:20.357856,15.27562536,.00007689,43.0018,17.3402,254.3974,105.6793,0,U,59844,999,11862,-.13648959E-3,-.4014E-4,0
STARLINK-31903,2024-097L,2026-06-26T22:10:58.668960,15.27553333,.00014349,43.0053,10.4667,282.6104,77.4587,0,U,59845,999,11870,-.19432455E-4,-.796E-5,0
STARLINK-31922,2024-097M,2026-06-26T21:45:29.936736,15.27579331,.00010794,43.0005,17.2520,265.3784,94.6945,0,U,59846,999,11862,.26462997E-4,.466E-5,0
STARLINK-31889,2024-097N,2026-06-25T23:32:43.201248,15.27583538,.00012925,43.0019,23.2102,267.1405,92.9299,0,U,59847,999,11847,.48517026E-4,.1073E-4,0
STARLINK-31859,2024-097P,2026-06-26T22:20:14.101728,15.27560081,.00010497,43.0025,10.5143,287.1066,72.9671,0,U,59848,999,11870,-.76392668E-4,-.2362E-4,0
STARLINK-31895,2024-097Q,2026-06-26T06:24:17.500608,15.27586600,.0001545,43.0010,21.0576,279.0754,80.9923,0,U,59849,999,11852,.30512234E-3,.8145E-4,0
STARLINK-31899,2024-097R,2026-06-26T22:11:25.567008,15.27566279,.00009353,43.0053,17.3927,262.4986,97.5760,0,U,59850,999,11862,-.4452302E-4,-.1486E-4,0
STARLINK-31896,2024-097S,2026-06-26T22:16:59.575584,15.27576313,.00008546,43.0023,17.4202,252.5131,107.5628,0,U,59851,999,11862,-.1143346E-3,-.3406E-4,0
STARLINK-31892,2024-097U,2026-06-26T22:42:53.158176,15.27558699,.00014317,43.0038,17.5554,254.1181,105.9513,0,U,59853,999,11862,-.3621094E-5,-.362E-5,0
STARLINK-31891,2024-097V,2026-06-26T22:48:25.808544,15.27570360,.00009918,43.0035,17.5832,263.3780,96.6958,0,U,59854,999,11862,.3985376E-4,.835E-5,0
STARLINK-31882,2024-097W,2026-06-26T22:14:39.446880,15.27557581,.00010147,43.0034,10.4728,247.3543,112.7201,0,U,59855,999,11870,.14099129E-3,.3617E-4,0
STARLINK-31691,2024-097X,2026-06-26T20:00:15.557760,15.27569478,.00013357,43.0006,17.5589,276.5512,83.5188,0,U,59856,999,11861,-.15111553E-4,-.678E-5,0
STARLINK-31569,2024-097Y,2026-06-26T22:26:14.090784,15.27560166,.00009547,43.0020,17.4667,260.8151,99.2593,0,U,59857,999,11862,-.62882743E-4,-.1991E-4,0
STARLINK-31654,2024-098A,2026-06-26T21:29:36.245760,15.27569019,.00008001,42.9998,13.8366,275.5239,84.5522,0,U,59858,999,11862,-.64667825E-4,-.204E-4,0
STARLINK-31442,2024-098B,2026-06-26T07:33:14.889888,15.27572699,.0001081,43.0019,28.4387,270.8863,89.1865,0,U,59859,999,11841,-.28618E-4,-.1049E-4,0
STARLINK-31651,2024-098C,2026-06-26T22:23:41.540352,15.27682791,.00014783,43.0008,21.0394,227.5545,132.5181,0,U,59860,999,11855,-.94019338E-3,-.26125E-3,0
STARLINK-31584,2024-098E,2026-06-26T22:08:54.373056,15.27565684,.0001138,42.9993,20.9633,276.3961,83.6761,0,U,59862,999,11855,-.34032037E-4,-.1198E-4,0
STARLINK-31950,2024-098F,2026-06-26T22:34:48.136224,15.27572660,.00012145,43.0040,21.0951,271.3431,88.7281,0,U,59863,999,11855,.14755073E-4,.144E-5,0
STARLINK-31931,2024-098G,2026-06-26T23:00:43.038144,15.27548569,.00010442,43.0042,21.2297,247.7931,112.2810,0,U,59864,999,11855,.12256533E-3,.3109E-4,0
STARLINK-31938,2024-098H,2026-06-26T20:19:56.496288,15.27571482,.00009555,43.0011,21.2456,274.4366,85.6377,0,U,59865,999,11854,.408542E-6,-.251E-5,0
STARLINK-31941,2024-098J,2026-06-26T22:16:00.441696,15.27568769,.00015013,43.0013,3.3311,279.6691,80.3991,0,U,59866,999,11875,-.14776136E-4,-.669E-5,0
STARLINK-31952,2024-098K,2026-06-26T14:49:35.061024,15.27563888,.0001168,43.0049,22.9675,262.4993,97.5726,0,U,59867,999,11850,-.88198E-4,-.2687E-4,0
STARLINK-31921,2024-098L,2026-06-26T20:01:16.205376,15.27569260,.0000579,43.0003,341.2565,328.4112,31.6705,0,U,59868,999,11899,-.12774831E-3,-.3774E-4,0
STARLINK-31760,2024-098M,2026-06-26T22:55:11.007264,15.27527990,.00011635,43.0025,21.1999,241.5474,118.5260,0,U,59869,999,11855,.47122835E-3,.12707E-3,0
STARLINK-31945,2024-098N,2026-06-26T22:53:47.162976,15.27587295,.00014438,43.0038,16.8652,265.3966,94.6721,0,U,59870,999,11860,.9867511E-5,.9E-7,0
STARLINK-31937,2024-098P,2026-06-26T22:21:24.225696,15.27565100,.00011402,43.0043,14.1031,265.0058,95.0664,0,U,59871,999,11863,.17574849E-4,.221E-5,0
STARLINK-31940,2024-098R,2026-06-26T22:43:23.886336,15.27567799,.00011579,43.0028,13.3520,275.8424,84.2296,0,U,59873,999,11864,-.37340868E-4,-.1289E-4,0
